{
  "type": "FeatureCollection",
  "features": [
    {
      "type": "Feature",
      "properties": {
        "norad_id": 66807,
        "name": "STARLINK-36000",
        "group": "last-30-days",
        "lat": -12.918746593679161,
        "lon": 20.265075495478897,
        "alt_km": 415.962987135762,
        "timestamp": "2025-12-23T16:57:11.061820+00:00",
        "meta_object_name": "STARLINK-36000",
        "meta_object_id": "2025-278S",
        "meta_epoch": "2025-12-23T06:00:00.999648",
        "meta_mean_motion": 15.505397,
        "meta_eccentricity": 0.00016468,
        "meta_inclination": 42.9997,
        "meta_ra_of_asc_node": 188.685,
        "meta_arg_of_pericenter": 263.8806,
        "meta_mean_anomaly": 264.719,
        "meta_ephemeris_type": 0,
        "meta_classification_type": "U",
        "meta_norad_cat_id": 66807,
        "meta_element_set_no": 999,
        "meta_rev_at_epoch": 470,
        "meta_bstar": 0.00031584142,
        "meta_mean_motion_dot": 0.00018204,
        "meta_mean_motion_ddot": 0,
        "tle_line1": "1 66807U 25278S   25357.25001157  .00018204  00000+0  31584-3 0  9992",
        "tle_line2": "2 66807  42.9997 188.6850 0001646 263.8806 264.7190 15.50539700  4700"
      },
      "geometry": {
        "type": "Point",
        "coordinates": [
          20.265075495478897,
          -12.918746593679161
        ]
      }
    },
    {
      "type": "Feature",
      "properties": {
        "norad_id": 66808,
        "name": "STARLINK-36071",
        "group": "last-30-days",
        "lat": -14.179477381943483,
        "lon": 21.7424864143483,
        "alt_km": 416.11645599476833,
        "timestamp": "2025-12-23T16:57:11.061830+00:00",
        "meta_object_name": "STARLINK-36071",
        "meta_object_id": "2025-278T",
        "meta_epoch": "2025-12-23T06:00:00.999648",
        "meta_mean_motion": 15.50540132,
        "meta_eccentricity": 0.00016692,
        "meta_inclination": 42.9998,
        "meta_ra_of_asc_node": 188.6804,
        "meta_arg_of_pericenter": 267.9498,
        "meta_mean_anomaly": 262.563,
        "meta_ephemeris_type": 0,
        "meta_classification_type": "U",
        "meta_norad_cat_id": 66808,
        "meta_element_set_no": 999,
        "meta_rev_at_epoch": 464,
        "meta_bstar": 0.00035857069,
        "meta_mean_motion_dot": 0.00020721,
        "meta_mean_motion_ddot": 0,
        "tle_line1": "1 66808U 25278T   25357.25001157  .00020721  00000+0  35857-3 0  9997",
        "tle_line2": "2 66808  42.9998 188.6804 0001669 267.9498 262.5630 15.50540132  4647"
      },
      "geometry": {
        "type": "Point",
        "coordinates": [
          21.7424864143483,
          -14.179477381943483
        ]
      }
    },
    {
      "type": "Feature",
      "properties": {
        "norad_id": 66809,
        "name": "STARLINK-35979",
        "group": "last-30-days",
        "lat": -17.901360824732308,
        "lon": 26.27796809056922,
        "alt_km": 415.93661931704264,
        "timestamp": "2025-12-23T16:57:11.061842+00:00",
        "meta_object_name": "STARLINK-35979",
        "meta_object_id": "2025-278U",
        "meta_epoch": "2025-12-23T06:00:00.999648",
        "meta_mean_motion": 15.50546862,
        "meta_eccentricity": 0.00022182,
        "meta_inclination": 42.9999,
        "meta_ra_of_asc_node": 188.6658,
        "meta_arg_of_pericenter": 257.387,
        "meta_mean_anomaly": 278.8584,
        "meta_ephemeris_type": 0,
        "meta_classification_type": "U",
        "meta_norad_cat_id": 66809,
        "meta_element_set_no": 999,
        "meta_rev_at_epoch": 464,
        "meta_bstar": 0.00043810823,
        "meta_mean_motion_dot": 0.00025415,
        "meta_mean_motion_ddot": 0,
        "tle_line1": "1 66809U 25278U   25357.25001157  .00025415  00000+0  43811-3 0  9992",
        "tle_line2": "2 66809  42.9999 188.6658 0002218 257.3870 278.8584 15.50546862  4648"
      },
      "geometry": {
        "type": "Point",
        "coordinates": [
          26.27796809056922,
          -17.901360824732308
        ]
      }
    },
    {
      "type": "Feature",
      "properties": {
        "norad_id": 66810,
        "name": "STARLINK-36046",
        "group": "last-30-days",
        "lat": -15.432114322404713,
        "lon": 23.237868537279365,
        "alt_km": 416.2151301673439,
        "timestamp": "2025-12-23T16:57:11.061852+00:00",
        "meta_object_name": "STARLINK-36046",
        "meta_object_id": "2025-278V",
        "meta_epoch": "2025-12-23T06:00:00.999648",
        "meta_mean_motion": 15.50539445,
        "meta_eccentricity": 0.0001613,
        "meta_inclination": 42.9997,
        "meta_ra_of_asc_node": 188.6758,
        "meta_arg_of_pericenter": 267.4759,
        "meta_mean_anomaly": 264.9552,
        "meta_ephemeris_type": 0,
        "meta_classification_type": "U",
        "meta_norad_cat_id": 66810,
        "meta_element_set_no": 999,
        "meta_rev_at_epoch": 442,
        "meta_bstar": 0.00033832633,
        "meta_mean_motion_dot": 0.00019528,
        "meta_mean_motion_ddot": 0,
        "tle_line1": "1 66810U 25278V   25357.25001157  .00019528  00000+0  33833-3 0  9995",
        "tle_line2": "2 66810  42.9997 188.6758 0001613 267.4759 264.9552 15.50539445  4421"
      },
      "geometry": {
        "type": "Point",
        "coordinates": [
          23.237868537279365,
          -15.432114322404713
        ]
      }
    },
    {
      "type": "Feature",
      "properties": {
        "norad_id": 66811,
        "name": "STARLINK-36045",
        "group": "last-30-days",
        "lat": -16.675549763836102,
        "lon": 24.751795624031654,
        "alt_km": 416.2526817185908,
        "timestamp": "2025-12-23T16:57:11.061866+00:00",
        "meta_object_name": "STARLINK-36045",
        "meta_object_id": "2025-278W",
        "meta_epoch": "2025-12-23T06:00:00.999648",
        "meta_mean_motion": 15.50540097,
        "meta_eccentricity": 0.00016478,
        "meta_inclination": 42.9998,
        "meta_ra_of_asc_node": 188.6705,
        "meta_arg_of_pericenter": 265.1966,
        "meta_mean_anomaly": 269.1531,
        "meta_ephemeris_type": 0,
        "meta_classification_type": "U",
        "meta_norad_cat_id": 66811,
        "meta_element_set_no": 999,
        "meta_rev_at_epoch": 464,
        "meta_bstar": 0.0003121855,
        "meta_mean_motion_dot": 0.0001799,
        "meta_mean_motion_ddot": 0,
        "tle_line1": "1 66811U 25278W   25357.25001157  .00017990  00000+0  31219-3 0  9993",
        "tle_line2": "2 66811  42.9998 188.6705 0001647 265.1966 269.1531 15.50540097  4640"
      },
      "geometry": {
        "type": "Point",
        "coordinates": [
          24.751795624031654,
          -16.675549763836102
        ]
      }
    },
    {
      "type": "Feature",
      "properties": {
        "norad_id": 66812,
        "name": "STARLINK-36054",
        "group": "last-30-days",
        "lat": -19.126717247569463,
        "lon": 27.840639640996926,
        "alt_km": 416.379999908404,
        "timestamp": "2025-12-23T16:57:11.061876+00:00",
        "meta_object_name": "STARLINK-36054",
        "meta_object_id": "2025-278X",
        "meta_epoch": "2025-12-23T06:00:00.999648",
        "meta_mean_motion": 15.5054048,
        "meta_eccentricity": 0.00016789,
        "meta_inclination": 42.9996,
        "meta_ra_of_asc_node": 188.6609,
        "meta_arg_of_pericenter": 263.826,
        "meta_mean_anomaly": 274.3602,
        "meta_ephemeris_type": 0,
        "meta_classification_type": "U",
        "meta_norad_cat_id": 66812,
        "meta_element_set_no": 999,
        "meta_rev_at_epoch": 464,
        "meta_bstar": 0.00028172198,
        "meta_mean_motion_dot": 0.00016197,
        "meta_mean_motion_ddot": 0,
        "tle_line1": "1 66812U 25278X   25357.25001157  .00016197  00000+0  28172-3 0  9996",
        "tle_line2": "2 66812  42.9996 188.6609 0001678 263.8260 274.3602 15.50540480  4641"
      },
      "geometry": {
        "type": "Point",
        "coordinates": [
          27.840639640996926,
          -19.126717247569463
        ]
      }
    },
    {
      "type": "Feature",
      "properties": {
        "norad_id": 66813,
        "name": "STARLINK-36042",
        "group": "last-30-days",
        "lat": -20.331272400994578,
        "lon": 29.4161784304455,
        "alt_km": 416.57066601228235,
        "timestamp": "2025-12-23T16:57:11.061886+00:00",
        "meta_object_name": "STARLINK-36042",
        "meta_object_id": "2025-278Y",
        "meta_epoch": "2025-12-23T06:00:00.999648",
        "meta_mean_motion": 15.50541316,
        "meta_eccentricity": 0.00015833,
        "meta_inclination": 42.9995,
        "meta_ra_of_asc_node": 188.6555,
        "meta_arg_of_pericenter": 269.1784,
        "meta_mean_anomaly": 270.9215,
        "meta_ephemeris_type": 0,
        "meta_classification_type": "U",
        "meta_norad_cat_id": 66813,
        "meta_element_set_no": 999,
        "meta_rev_at_epoch": 464,
        "meta_bstar": 0.0002899052,
        "meta_mean_motion_dot": 0.00016679,
        "meta_mean_motion_ddot": 0,
        "tle_line1": "1 66813U 25278Y   25357.25001157  .00016679  00000+0  28991-3 0  9991",
        "tle_line2": "2 66813  42.9995 188.6555 0001583 269.1784 270.9215 15.50541316  4647"
      },
      "geometry": {
        "type": "Point",
        "coordinates": [
          29.4161784304455,
          -20.331272400994578
        ]
      }
    }
  ]
}